[{"OBJECT_NAME":"ICEYE-X4","OBJECT_ID":"2019-038D","EPOCH":"2026-03-09T23:53:58.416000","MEAN_MOTION":15.26985132,"ECCENTRICITY":0.00122769,"INCLINATION":97.8888,"RA_OF_ASC_NODE":96.1923,"ARG_OF_PERICENTER":293.9914,"MEAN_ANOMALY":66.0038,"EPHEMERIS_TYPE":0,"CLASSIFICATION_TYPE":"U","NORAD_CAT_ID":44390,"ELEMENT_SET_NO":999,"REV_AT_EPOCH":36665,"BSTAR":0.00049915294,"MEAN_MOTION_DOT":0.00013179,"MEAN_MOTION_DDOT":0},{"OBJECT_NAME":"STARLINK-30393","OBJECT_ID":"2023-144C","EPOCH":"2026-03-09T22:00:01.999584","MEAN_MOTION":15.26742109,"ECCENTRICITY":0.00014647,"INCLINATION":42.9998,"RA_OF_ASC_NODE":283.5747,"ARG_OF_PERICENTER":268.9338,"MEAN_ANOMALY":181.8638,"EPHEMERIS_TYPE":0,"CLASSIFICATION_TYPE":"U","NORAD_CAT_ID":57866,"ELEMENT_SET_NO":999,"REV_AT_EPOCH":557,"BSTAR":0.00081323783,"MEAN_MOTION_DOT":0.0002162,"MEAN_MOTION_DDOT":0}]
